{
  "norad_id": 57912,
  "name": "STARLINK-30477",
  "history": [
    {
      "epoch": "2026-03-28T14:51:04.885920",
      "apogee_km": 483.8634456060272,
      "perigee_km": 482.22773967594094,
      "latitude_deg": 26.749380618945484,
      "longitude_deg": 30.60542879998684,
      "semi_major_axis_km": 6861.182592640984,
      "eccentricity": 0.0001192,
      "inclination_deg": 43.0016,
      "raan_deg": 203.6757,
      "arg_perigee_deg": 277.3672,
      "mean_anomaly_deg": 82.7044,
      "mean_motion_rev_day": 15.2758117
    }
  ]
}